CCSDS_OMM_VERS = 2.0
CREATION_DATE  = 
ORIGINATOR     = 

OBJECT_NAME    = STARLINK-36766
OBJECT_ID      = 2026-042A
CENTER_NAME    = EARTH
REF_FRAME      = TEME
TIME_SYSTEM    = UTC
MEAN_ELEMENT_THEORY = SGP/SGP4

EPOCH          = 2026-04-02T04:00:03.000096
MEAN_MOTION    = 15.75241838
ECCENTRICITY   = .0001161
INCLINATION    = 53.1590
RA_OF_ASC_NODE = 77.2625
ARG_OF_PERICENTER = 86.3276
MEAN_ANOMALY   = 294.3316

EPHEMERIS_TYPE = 0
CLASSIFICATION_TYPE = U
NORAD_CAT_ID   = 68069
ELEMENT_SET_NO = 999
REV_AT_EPOCH   = 581
BSTAR          = -.13666E-3
MEAN_MOTION_DOT = -.21537E-3
MEAN_MOTION_DDOT = 0

CCSDS_OMM_VERS = 2.0
CREATION_DATE  = 
ORIGINATOR     = 

OBJECT_NAME    = STARLINK-36823
OBJECT_ID      = 2026-042B
CENTER_NAME    = EARTH
REF_FRAME      = TEME
TIME_SYSTEM    = UTC
MEAN_ELEMENT_THEORY = SGP/SGP4

EPOCH          = 2026-04-01T06:21:21.324960
MEAN_MOTION    = 15.80941111
ECCENTRICITY   = .00010822
INCLINATION    = 53.1563
RA_OF_ASC_NODE = 81.6298
ARG_OF_PERICENTER = 38.4869
MEAN_ANOMALY   = 321.6230

EPHEMERIS_TYPE = 0
CLASSIFICATION_TYPE = U
NORAD_CAT_ID   = 68070
ELEMENT_SET_NO = 999
REV_AT_EPOCH   = 565
BSTAR          = .12281634E-2
MEAN_MOTION_DOT = .249621E-2
MEAN_MOTION_DDOT = 0

CCSDS_OMM_VERS = 2.0
CREATION_DATE  = 
ORIGINATOR     = 

OBJECT_NAME    = STARLINK-36970
OBJECT_ID      = 2026-042C
CENTER_NAME    = EARTH
REF_FRAME      = TEME
TIME_SYSTEM    = UTC
MEAN_ELEMENT_THEORY = SGP/SGP4

EPOCH          = 2026-04-02T04:14:54.686112
MEAN_MOTION    = 15.75299560
ECCENTRICITY   = .0001427
INCLINATION    = 53.1586
RA_OF_ASC_NODE = 77.3728
ARG_OF_PERICENTER = 116.6424
MEAN_ANOMALY   = 243.4743

EPHEMERIS_TYPE = 0
CLASSIFICATION_TYPE = U
NORAD_CAT_ID   = 68071
ELEMENT_SET_NO = 999
REV_AT_EPOCH   = 579
BSTAR          = .1766E-2
MEAN_MOTION_DOT = .279963E-2
MEAN_MOTION_DDOT = 0

CCSDS_OMM_VERS = 2.0
CREATION_DATE  = 
ORIGINATOR     = 

OBJECT_NAME    = STARLINK-36972
OBJECT_ID      = 2026-042D
CENTER_NAME    = EARTH
REF_FRAME      = TEME
TIME_SYSTEM    = UTC
MEAN_ELEMENT_THEORY = SGP/SGP4

EPOCH          = 2026-04-02T04:00:03.000096
MEAN_MOTION    = 15.75301243
ECCENTRICITY   = .0001118
INCLINATION    = 53.1599
RA_OF_ASC_NODE = 77.1602
ARG_OF_PERICENTER = 90.6346
MEAN_ANOMALY   = 339.6660

EPHEMERIS_TYPE = 0
CLASSIFICATION_TYPE = U
NORAD_CAT_ID   = 68072
ELEMENT_SET_NO = 999
REV_AT_EPOCH   = 582
BSTAR          = -.10038E-2
MEAN_MOTION_DOT = -.152194E-2
MEAN_MOTION_DDOT = 0

CCSDS_OMM_VERS = 2.0
CREATION_DATE  = 
ORIGINATOR     = 

OBJECT_NAME    = STARLINK-37074
OBJECT_ID      = 2026-042E
CENTER_NAME    = EARTH
REF_FRAME      = TEME
TIME_SYSTEM    = UTC
MEAN_ELEMENT_THEORY = SGP/SGP4

EPOCH          = 2026-04-02T05:32:43.585728
MEAN_MOTION    = 15.75351620
ECCENTRICITY   = .0000953
INCLINATION    = 53.1573
RA_OF_ASC_NODE = 76.9943
ARG_OF_PERICENTER = 115.0396
MEAN_ANOMALY   = 245.0723

EPHEMERIS_TYPE = 0
CLASSIFICATION_TYPE = U
NORAD_CAT_ID   = 68073
ELEMENT_SET_NO = 999
REV_AT_EPOCH   = 580
BSTAR          = .18274E-2
MEAN_MOTION_DOT = .290756E-2
MEAN_MOTION_DDOT = 0

CCSDS_OMM_VERS = 2.0
CREATION_DATE  = 
ORIGINATOR     = 

OBJECT_NAME    = STARLINK-37045
OBJECT_ID      = 2026-042F
CENTER_NAME    = EARTH
REF_FRAME      = TEME
TIME_SYSTEM    = UTC
MEAN_ELEMENT_THEORY = SGP/SGP4

EPOCH          = 2026-04-02T04:00:03.000096
MEAN_MOTION    = 15.75307494
ECCENTRICITY   = .0001288
INCLINATION    = 53.1585
RA_OF_ASC_NODE = 77.5845
ARG_OF_PERICENTER = 73.7072
MEAN_ANOMALY   = 150.5594

EPHEMERIS_TYPE = 0
CLASSIFICATION_TYPE = U
NORAD_CAT_ID   = 68074
ELEMENT_SET_NO = 999
REV_AT_EPOCH   = 582
BSTAR          = -.10245E-2
MEAN_MOTION_DOT = -.155299E-2
MEAN_MOTION_DDOT = 0

CCSDS_OMM_VERS = 2.0
CREATION_DATE  = 
ORIGINATOR     = 

OBJECT_NAME    = STARLINK-37026
OBJECT_ID      = 2026-042G
CENTER_NAME    = EARTH
REF_FRAME      = TEME
TIME_SYSTEM    = UTC
MEAN_ELEMENT_THEORY = SGP/SGP4

EPOCH          = 2026-04-02T01:45:19.453248
MEAN_MOTION    = 15.75353830
ECCENTRICITY   = .0000877
INCLINATION    = 53.1555
RA_OF_ASC_NODE = 78.1547
ARG_OF_PERICENTER = 272.3686
MEAN_ANOMALY   = 87.7234

EPHEMERIS_TYPE = 0
CLASSIFICATION_TYPE = U
NORAD_CAT_ID   = 68075
ELEMENT_SET_NO = 999
REV_AT_EPOCH   = 577
BSTAR          = .19642E-2
MEAN_MOTION_DOT = .313456E-2
MEAN_MOTION_DDOT = 0

CCSDS_OMM_VERS = 2.0
CREATION_DATE  = 
ORIGINATOR     = 

OBJECT_NAME    = STARLINK-37023
OBJECT_ID      = 2026-042H
CENTER_NAME    = EARTH
REF_FRAME      = TEME
TIME_SYSTEM    = UTC
MEAN_ELEMENT_THEORY = SGP/SGP4

EPOCH          = 2026-04-02T04:40:34.710816
MEAN_MOTION    = 15.75353899
ECCENTRICITY   = .0001124
INCLINATION    = 53.1561
RA_OF_ASC_NODE = 77.4907
ARG_OF_PERICENTER = 113.2316
MEAN_ANOMALY   = 246.8823

EPHEMERIS_TYPE = 0
CLASSIFICATION_TYPE = U
NORAD_CAT_ID   = 68076
ELEMENT_SET_NO = 999
REV_AT_EPOCH   = 579
BSTAR          = .1889E-2
MEAN_MOTION_DOT = .300972E-2
MEAN_MOTION_DDOT = 0

CCSDS_OMM_VERS = 2.0
CREATION_DATE  = 
ORIGINATOR     = 

OBJECT_NAME    = STARLINK-37036
OBJECT_ID      = 2026-042J
CENTER_NAME    = EARTH
REF_FRAME      = TEME
TIME_SYSTEM    = UTC
MEAN_ELEMENT_THEORY = SGP/SGP4

EPOCH          = 2026-04-02T04:41:03.350688
MEAN_MOTION    = 15.75283041
ECCENTRICITY   = .0001338
INCLINATION    = 53.1564
RA_OF_ASC_NODE = 77.4926
ARG_OF_PERICENTER = 41.9803
MEAN_ANOMALY   = 318.1320

EPHEMERIS_TYPE = 0
CLASSIFICATION_TYPE = U
NORAD_CAT_ID   = 68077
ELEMENT_SET_NO = 999
REV_AT_EPOCH   = 579
BSTAR          = .16002E-2
MEAN_MOTION_DOT = .252606E-2
MEAN_MOTION_DDOT = 0

CCSDS_OMM_VERS = 2.0
CREATION_DATE  = 
ORIGINATOR     = 

OBJECT_NAME    = STARLINK-36973
OBJECT_ID      = 2026-042K
CENTER_NAME    = EARTH
REF_FRAME      = TEME
TIME_SYSTEM    = UTC
MEAN_ELEMENT_THEORY = SGP/SGP4

EPOCH          = 2026-04-02T05:33:12.095136
MEAN_MOTION    = 15.75303661
ECCENTRICITY   = .0001412
INCLINATION    = 53.1579
RA_OF_ASC_NODE = 76.9958
ARG_OF_PERICENTER = 113.1639
MEAN_ANOMALY   = 246.9530

EPHEMERIS_TYPE = 0
CLASSIFICATION_TYPE = U
NORAD_CAT_ID   = 68078
ELEMENT_SET_NO = 999
REV_AT_EPOCH   = 580
BSTAR          = .23143E-2
MEAN_MOTION_DOT = .371173E-2
MEAN_MOTION_DDOT = 0

CCSDS_OMM_VERS = 2.0
CREATION_DATE  = 
ORIGINATOR     = 

OBJECT_NAME    = STARLINK-37063
OBJECT_ID      = 2026-042L
CENTER_NAME    = EARTH
REF_FRAME      = TEME
TIME_SYSTEM    = UTC
MEAN_ELEMENT_THEORY = SGP/SGP4

EPOCH          = 2026-04-02T04:58:14.618496
MEAN_MOTION    = 15.81011870
ECCENTRICITY   = .0000984
INCLINATION    = 53.1568
RA_OF_ASC_NODE = 76.8362
ARG_OF_PERICENTER = 87.5954
MEAN_ANOMALY   = 272.5181

EPHEMERIS_TYPE = 0
CLASSIFICATION_TYPE = U
NORAD_CAT_ID   = 68079
ELEMENT_SET_NO = 999
REV_AT_EPOCH   = 580
BSTAR          = .16874E-2
MEAN_MOTION_DOT = .348352E-2
MEAN_MOTION_DDOT = 0

CCSDS_OMM_VERS = 2.0
CREATION_DATE  = 
ORIGINATOR     = 

OBJECT_NAME    = STARLINK-37051
OBJECT_ID      = 2026-042M
CENTER_NAME    = EARTH
REF_FRAME      = TEME
TIME_SYSTEM    = UTC
MEAN_ELEMENT_THEORY = SGP/SGP4

EPOCH          = 2026-04-02T02:37:01.041312
MEAN_MOTION    = 15.75342009
ECCENTRICITY   = .0001
INCLINATION    = 53.1582
RA_OF_ASC_NODE = 77.6571
ARG_OF_PERICENTER = 115.8791
MEAN_ANOMALY   = 244.2333

EPHEMERIS_TYPE = 0
CLASSIFICATION_TYPE = U
NORAD_CAT_ID   = 68080
ELEMENT_SET_NO = 999
REV_AT_EPOCH   = 578
BSTAR          = .18102E-2
MEAN_MOTION_DOT = .287784E-2
MEAN_MOTION_DDOT = 0

