STARLINK-36766          
1 68069U 26042A   26092.16670139 -.00021537  00000+0 -13666-3 0  9999
2 68069  53.1590  77.2625 0001161  86.3276 294.3316 15.75241838  5810
STARLINK-36823          
1 68070U 26042B   26091.26483015  .00249621  00000+0  12282-2 0  9992
2 68070  53.1563  81.6298 0001082  38.4869 321.6230 15.80941111  5653
STARLINK-36970          
1 68071U 26042C   26092.17702183  .00279963  00000+0  17660-2 0  9991
2 68071  53.1586  77.3728 0001427 116.6424 243.4743 15.75299560  5791
STARLINK-36972          
1 68072U 26042D   26092.16670139 -.00152194  00000+0 -10038-2 0  9996
2 68072  53.1599  77.1602 0001118  90.6346 339.6660 15.75301243  5828
STARLINK-37074          
1 68073U 26042E   26092.23106002  .00290756  00000+0  18274-2 0  9993
2 68073  53.1573  76.9943 0000953 115.0396 245.0723 15.75351620  5801
STARLINK-37045          
1 68074U 26042F   26092.16670139 -.00155299  00000+0 -10245-2 0  9997
2 68074  53.1585  77.5845 0001288  73.7072 150.5594 15.75307494  5824
STARLINK-37026          
1 68075U 26042G   26092.07314182  .00313456  00000+0  19642-2 0  9990
2 68075  53.1555  78.1547 0000877 272.3686  87.7234 15.75353830  5770
STARLINK-37023          
1 68076U 26042H   26092.19484619  .00300972  00000+0  18890-2 0  9990
2 68076  53.1561  77.4907 0001124 113.2316 246.8823 15.75353899  5798
STARLINK-37036          
1 68077U 26042J   26092.19517767  .00252606  00000+0  16002-2 0  9995
2 68077  53.1564  77.4926 0001338  41.9803 318.1320 15.75283041  5794
STARLINK-36973          
1 68078U 26042K   26092.23138999  .00371173  00000+0  23143-2 0  9992
2 68078  53.1579  76.9958 0001412 113.1639 246.9530 15.75303661  5806
STARLINK-37063          
1 68079U 26042L   26092.20711364  .00348352  00000+0  16874-2 0  9999
2 68079  53.1568  76.8362 0000984  87.5954 272.5181 15.81011870  5802
STARLINK-37051          
1 68080U 26042M   26092.10903983  .00287784  00000+0  18102-2 0  9997
2 68080  53.1582  77.6571 0001000 115.8791 244.2333 15.75342009  5781
